NORAD_CAT_ID,OBJECT_NAME,OBJECT_TYPE,EPOCH,MEAN_MOTION,ECCENTRICITY,INCLINATION,RA_OF_ASC_NODE,ARG_OF_PERICENTER,MEAN_ANOMALY,BSTAR,MEAN_MOTION_DOT,MEAN_MOTION_DDOT,TLE_LINE0,TLE_LINE1,TLE_LINE2,SEMIMAJOR_AXIS,PERIOD,APOGEE,PERIGEE,DECAYED
55308.0,STARLINK-5292,PAYLOAD,2023-11-11 10:49:21,14.98320073,0.0002644,69.9999,345.7251,267.3409,92.7448,-0.00027812,-3.409e-05,0.0,0 STARLINK-5292,1 55308U 23010AR  23315.45094568 -.00003409  00000-0 -27812-3 0  9993,2 55308  69.9999 345.7251 0002644 267.3409  92.7448 14.98320073 46245,6950.224,96.108,573.926,570.251,0.0
55308.0,STARLINK-5292,PAYLOAD,2023-11-11 12:25:29,14.98320569,0.0002706,69.9997,345.5568,268.4244,91.6605,-0.00027166,-3.332e-05,0.0,0 STARLINK-5292,1 55308U 23010AR  23315.51770549 -.00003332  00000-0 -27166-3 0  9997,2 55308  69.9997 345.5568 0002706 268.4244  91.6605 14.98320569 47446,6950.222,96.108,573.968,570.206,0.0
55308.0,STARLINK-5292,PAYLOAD,2023-11-11 18:50:01,14.98323005,0.0002734,69.9997,344.8841,268.6284,91.4561,-0.00023535,-2.899e-05,0.0,0 STARLINK-5292,1 55308U 23010AR  23315.78474425 -.00002899  00000-0 -23535-3 0  9993,2 55308  69.9997 344.8841 0002734 268.6284  91.4561 14.98323005 47480,6950.215,96.107,573.98,570.179,0.0
55308.0,STARLINK-5292,PAYLOAD,2023-11-12 02:50:42,14.98320193,0.0002902,69.999,344.0412,271.1884,88.8942,-9.1277e-05,-1.182e-05,0.0,0 STARLINK-5292,1 55308U 23010AR  23316.11854374 -.00001182  00000-0 -91277-4 0  9999,2 55308  69.9990 344.0412 0002902 271.1884  88.8942 14.98320193 46343,6950.223,96.108,574.105,570.071,0.0
55308.0,STARLINK-5292,PAYLOAD,2023-11-12 10:51:22,14.9832396,0.0002816,69.9992,343.1996,271.0982,88.9855,-4.8834e-05,-6.76e-06,0.0,0 STARLINK-5292,1 55308U 23010AR  23316.45234204 -.00000676  00000-0 -48834-4 0  9998,2 55308  69.9992 343.1996 0002816 271.0982  88.9855 14.98323960 47580,6950.212,96.107,574.034,570.119,0.0
55308.0,STARLINK-5292,PAYLOAD,2023-11-12 18:52:02,14.98329992,0.0002847,69.9993,342.3579,272.0616,88.0217,-3.22e-05,-4.77e-06,0.0,0 STARLINK-5292,1 55308U 23010AR  23316.78613923 -.00000477  00000-0 -32200-4 0  9992,2 55308  69.9993 342.3579 0002847 272.0616  88.0217 14.98329992 46446,6950.193,96.107,574.037,570.079,0.0
55308.0,STARLINK-5292,PAYLOAD,2023-11-13 10:53:22,14.9833426,0.0002556,69.9991,340.6742,264.7302,95.3565,0.00012036,1.344e-05,0.0,0 STARLINK-5292,1 55308U 23010AR  23317.45373259  .00001344  00000-0  12036-3 0  9998,2 55308  69.9991 340.6742 0002556 264.7302  95.3565 14.98334260 46546,6950.18,96.107,573.821,570.268,0.0
55308.0,STARLINK-5292,PAYLOAD,2023-11-13 12:29:30,14.98328361,0.0002665,69.9992,340.5058,265.6684,94.4171,0.00023658,2.731e-05,0.0,0 STARLINK-5292,1 55308U 23010AR  23317.52049342  .00002731  00000-0  23658-3 0  9992,2 55308  69.9992 340.5058 0002665 265.6684  94.4171 14.98328361 47741,6950.198,96.107,573.915,570.211,0.0
55308.0,STARLINK-5292,PAYLOAD,2023-11-13 18:54:02,14.98329817,0.0002657,69.9997,339.8333,271.4508,88.6347,0.00022667,2.613e-05,0.0,0 STARLINK-5292,1 55308U 23010AR  23317.78753350  .00002613  00000-0  22667-3 0  9999,2 55308  69.9997 339.8333 0002657 271.4508  88.6347 14.98329817 47785,6950.193,96.107,573.905,570.212,0.0
55308.0,STARLINK-5292,PAYLOAD,2023-11-14 10:55:22,14.98342224,0.0002885,69.9992,338.1493,270.8599,89.2229,0.00018318,2.094e-05,0.0,0 STARLINK-5292,1 55308U 23010AR  23318.45512257  .00002094  00000-0  18318-3 0  9994,2 55308  69.9992 338.1493 0002885 270.8599  89.2229 14.98342224 46697,6950.155,96.106,574.025,570.015,0.0
55308.0,STARLINK-5292,PAYLOAD,2023-11-14 18:56:03,14.98330724,0.0002253,70.0012,337.3077,277.5014,82.5889,8.485e-05,9.2e-06,0.0,0 STARLINK-5292,1 55308U 23010AR  23318.78893289  .00000920  00000-0  84850-4 0  9998,2 55308  70.0012 337.3077 0002253 277.5014  82.5889 14.98330724 46743,6950.191,96.107,573.622,570.49,0.0
55308.0,STARLINK-5292,PAYLOAD,2023-11-15 10:57:24,14.98329261,0.0002567,69.9996,335.6241,265.8229,94.2637,-0.00011363,-1.448e-05,0.0,0 STARLINK-5292,1 55308U 23010AR  23319.45653459 -.00001448  00000-0 -11363-3 0  9992,2 55308  69.9996 335.6241 0002567 265.8229  94.2637 14.98329261 48030,6950.195,96.107,573.844,570.276,0.0
55308.0,STARLINK-5292,PAYLOAD,2023-11-16 02:58:44,14.98334708,0.00029,69.999,333.9412,270.1988,89.8839,-0.00012051,-1.531e-05,0.0,0 STARLINK-5292,1 55308U 23010AR  23320.12412905 -.00001531  00000-0 -12051-3 0  9995,2 55308  69.9990 333.9412 0002900 270.1988  89.8839 14.98334708 46941,6950.178,96.107,574.059,570.028,0.0
55308.0,STARLINK-5292,PAYLOAD,2023-11-16 09:23:16,14.98339232,0.0002573,69.9998,333.2682,265.221,94.8655,-0.00019554,-2.426e-05,0.0,0 STARLINK-5292,1 55308U 23010AR  23320.39116741 -.00002426  00000-0 -19554-3 0  9992,2 55308  69.9998 333.2682 0002573 265.2210  94.8655 14.98339232 48176,6950.164,96.106,573.818,570.241,0.0
55308.0,STARLINK-5292,PAYLOAD,2023-11-17 03:00:46,14.98321924,0.0002888,70.0015,331.4164,277.9062,82.1769,-5.6791e-05,-7.7e-06,0.0,0 STARLINK-5292,1 55308U 23010AR  23321.12553293 -.00000770  00000-0 -56791-4 0  9996,2 55308  70.0015 331.4164 0002888 277.9062  82.1769 14.98321924 47093,6950.218,96.108,574.09,570.076,0.0
55308.0,STARLINK-5292,PAYLOAD,2023-11-17 11:01:25,14.9832648,0.0002513,70.0007,330.5741,268.186,91.9012,-1.8919e-05,-3.19e-06,0.0,0 STARLINK-5292,1 55308U 23010AR  23321.45932779 -.00000319  00000-0 -18919-4 0  9991,2 55308  70.0007 330.5741 0002513 268.1860  91.9012 14.98326480 47145,6950.204,96.107,573.815,570.322,0.0
55308.0,STARLINK-5292,PAYLOAD,2023-11-17 17:25:58,14.98326116,0.0002544,70.0009,329.9002,278.2819,81.8052,8.2867e-05,8.96e-06,0.0,0 STARLINK-5292,1 55308U 23010AR  23321.72636615  .00000896  00000-0  82867-4 0  9992,2 55308  70.0009 329.9002 0002544 278.2819  81.8052 14.98326116 48373,6950.205,96.107,573.838,570.302,0.0
55308.0,STARLINK-5292,PAYLOAD,2023-11-18 09:27:18,14.98327445,0.0002373,70.0,328.2178,263.9755,96.1134,1.5078e-05,8.7e-07,0.0,0 STARLINK-5292,1 55308U 23010AR  23322.39396647  .00000087  00000-0  15078-4 0  9996,2 55308  70.0000 328.2178 0002373 263.9755  96.1134 14.98327445 48477,6950.201,96.107,573.715,570.417,0.0
55308.0,STARLINK-5292,PAYLOAD,2023-11-18 17:27:59,14.98318296,0.0002718,69.9991,327.3757,274.8015,85.2834,0.00024667,2.851e-05,0.0,0 STARLINK-5292,1 55308U 23010AR  23322.72776726  .00002851  00000-0  24667-3 0  9997,2 55308  69.9991 327.3757 0002718 274.8015  85.2834 14.98318296 47333,6950.229,96.108,573.983,570.205,0.0
55308.0,STARLINK-5292,PAYLOAD,2023-11-19 03:04:47,14.98332389,0.0002872,69.9987,326.3656,270.9586,89.1244,2.1747e-06,-6.7e-07,0.0,0 STARLINK-5292,1 55308U 23010AR  23323.12832300 -.00000067  00000-0  21747-5 0  9999,2 55308  69.9987 326.3656 0002872 270.9586  89.1244 14.98332389 47399,6950.186,96.107,574.047,570.054,0.0
55308.0,STARLINK-5292,PAYLOAD,2023-11-19 09:29:19,14.98319545,0.0002745,69.9987,325.6924,267.7075,92.377,0.00023269,2.684e-05,0.0,0 STARLINK-5292,1 55308U 23010AR  23323.39536442  .00002684  00000-0  23269-3 0  9991,2 55308  69.9987 325.6924 0002745 267.7075  92.3770 14.98319545 48621,6950.225,96.108,573.998,570.182,0.0
55308.0,STARLINK-5292,PAYLOAD,2023-11-19 17:29:59,14.98330231,0.0002856,69.9987,324.8506,270.3164,89.7668,-9.3484e-06,-2.05e-06,0.0,0 STARLINK-5292,1 55308U 23010AR  23323.72916350 -.00000205  00000-0 -93484-5 0  9995,2 55308  69.9987 324.8506 0002856 270.3164  89.7668 14.98330231 48676,6950.192,96.107,574.042,570.072,0.0
55308.0,STARLINK-5292,PAYLOAD,2023-11-20 03:06:48,14.98331212,0.0002729,69.9997,323.8407,272.9677,87.1169,-8.8837e-06,-1.99e-06,0.0,0 STARLINK-5292,1 55308U 23010AR  23324.12972270 -.00000199  00000-0 -88837-5 0  9991,2 55308  69.9997 323.8407 0002729 272.9677  87.1169 14.98331212 47545,6950.189,96.107,573.951,570.157,0.0
55308.0,STARLINK-5292,PAYLOAD,2023-11-20 09:31:20,14.9832438,0.0002407,70.0007,323.1676,250.3355,109.7544,-3.1295e-05,-4.66e-06,0.0,0 STARLINK-5292,1 55308U 23010AR  23324.39676637 -.00000466  00000-0 -31295-4 0  9990,2 55308  70.0007 323.1676 0002407 250.3355 109.7544 14.98324380 48779,6950.21,96.107,573.748,570.402,0.0
55308.0,STARLINK-5292,PAYLOAD,2023-11-20 17:32:00,14.98329772,0.0002635,69.9999,322.3253,270.9807,89.105,-1.5503e-05,-2.78e-06,0.0,0 STARLINK-5292,1 55308U 23010AR  23324.73056331 -.00000278  00000-0 -15503-4 0  9996,2 55308  69.9999 322.3253 0002635 270.9807  89.1050 14.98329772 48820,6950.194,96.107,573.89,570.227,0.0
55308.0,STARLINK-5292,PAYLOAD,2023-11-21 03:08:49,14.98324017,0.0002934,70.0,321.3159,273.5899,86.4925,-9.4481e-05,-1.22e-05,0.0,0 STARLINK-5292,1 55308U 23010AR  23325.13112769 -.00001220  00000-0 -94481-4 0  9999,2 55308  70.0000 321.3159 0002934 273.5899  86.4925 14.98324017 47694,6950.211,96.107,574.116,570.037,0.0
55308.0,STARLINK-5292,PAYLOAD,2023-11-21 09:33:21,14.98331251,0.0002725,70.0003,320.6419,267.2333,92.8514,-4.4532e-05,-6.24e-06,0.0,0 STARLINK-5292,1 55308U 23010AR  23325.39816140 -.00000624  00000-0 -44532-4 0  9990,2 55308  70.0003 320.6419 0002725 267.2333  92.8514 14.98331251 47737,6950.189,96.107,573.948,570.16,0.0
55308.0,STARLINK-5292,PAYLOAD,2023-11-22 09:35:21,14.98331145,0.0002413,69.9999,318.1164,271.3331,88.7551,1.1966e-05,5e-07,0.0,0 STARLINK-5292,1 55308U 23010AR  23326.39955986  .00000050  00000-0  11966-4 0  9999,2 55308  69.9999 318.1164 0002413 271.3331  88.7551 14.98331145 47888,6950.189,96.107,573.731,570.377,0.0
55308.0,STARLINK-5292,PAYLOAD,2023-11-23 09:37:22,14.98325867,0.0002489,69.9998,315.5914,268.2829,91.8045,7.7784e-05,8.35e-06,0.0,0 STARLINK-5292,1 55308U 23010AR  23327.40096064  .00000835  00000-0  77784-4 0  9996,2 55308  69.9998 315.5914 0002489 268.2829  91.8045 14.98325867 48036,6950.206,96.107,573.801,570.341,0.0
55308.0,STARLINK-5292,PAYLOAD,2023-11-24 09:39:24,14.9832554,0.0002488,70.0,313.0682,263.1983,96.8893,-1.9999e-05,-3.31e-06,0.0,0 STARLINK-5292,1 55308U 23010AR  23328.40236429 -.00000331  00000-0 -19999-4 0  9995,2 55308  70.0000 313.0682 0002488 263.1983  96.8893 14.98325540 48182,6950.207,96.107,573.801,570.342,0.0
